OBJECT_NAME,OBJECT_ID,EPOCH,MEAN_MOTION,ECCENTRICITY,INCLINATION,RA_OF_ASC_NODE,ARG_OF_PERICENTER,MEAN_ANOMALY,EPHEMERIS_TYPE,CLASSIFICATION_TYPE,NORAD_CAT_ID,ELEMENT_SET_NO,REV_AT_EPOCH,BSTAR,MEAN_MOTION_DOT,MEAN_MOTION_DDOT
STARLINK-35423,2025-223V,2026-06-05T18:46:06.071808,15.34414925,.0000892,53.1583,244.2408,85.2409,274.8695,0,U,65873,999,3770,.54734E-3,.1817E-3,0
STARLINK-34688,2025-223X,2026-06-05T12:58:11.386848,15.34377050,.000153,53.1575,245.5718,57.0520,303.0629,0,U,65875,999,3766,.83694E-3,.27986E-3,0
STARLINK-34438,2025-223Y,2026-06-05T10:54:12.155040,15.34344631,.0001115,53.1600,246.4595,86.6148,273.4983,0,U,65876,999,3764,.78444E-3,.26173E-3,0
STARLINK-35453,2025-223AA,2026-06-05T17:27:27.792000,15.34414607,.0001665,53.1582,244.6131,43.9313,316.1822,0,U,65878,999,3769,.77292E-3,.2584E-3,0
STARLINK-35418,2025-223AB,2026-06-05T13:07:16.671072,15.34395825,.0001263,53.1574,245.6124,100.2282,259.8863,0,U,65879,999,3766,.97589E-3,.32736E-3,0
STARLINK-35445,2025-223AC,2026-06-05T13:01:13.101600,15.34403096,.0000744,53.1575,245.5831,65.4371,294.6709,0,U,65880,999,3766,.61109E-3,.20328E-3,0
STARLINK-35464,2025-223AD,2026-06-05T17:18:21.655008,15.34418945,.0000968,53.1582,244.5718,63.9248,296.1854,0,U,65881,999,3769,.58271E-3,.19374E-3,0
STARLINK-35270,2025-224A,2026-06-05T19:30:10.844064,15.34407673,.0001151,53.1591,320.8070,68.6639,291.4486,0,U,65882,999,3833,.13002E-2,.43822E-3,0
STARLINK-35367,2025-224B,2026-06-04T16:37:28.161984,15.34408205,.0001742,53.1603,325.9033,144.0890,216.0230,0,U,65883,999,3816,.11453E-2,.38529E-3,0
STARLINK-35384,2025-224C,2026-06-05T02:01:27.637824,15.30182848,.00010085,53.1602,325.4986,78.2611,281.8503,0,U,65884,999,3820,.12560204E-2,.37006E-3,0
STARLINK-35415,2025-224D,2026-06-04T18:02:10.457952,15.34414324,.00010211,53.1599,325.5601,93.7644,266.3475,0,U,65885,999,3812,.79014692E-3,.26426E-3,0
STARLINK-35413,2025-224E,2026-06-04T17:56:07.149408,15.34382832,.0001049,53.1610,325.5284,60.0238,300.0868,0,U,65886,999,3812,.80523E-3,.26913E-3,0
STARLINK-35332,2025-224F,2026-06-05T04:40:34.419648,15.34404342,.0001403,53.1613,323.3487,77.6717,282.4443,0,U,65887,999,3827,.88285E-3,.29574E-3,0
STARLINK-35362,2025-224G,2026-06-04T16:47:47.079744,15.30220204,.00014274,53.1593,327.3640,28.8618,331.2461,0,U,65888,999,3814,.10642776E-2,.31314E-3,0
STARLINK-35193,2025-224H,2026-06-05T03:59:49.570944,15.30196197,.00011975,53.1586,325.2869,67.2864,292.8264,0,U,65889,999,3824,.73501332E-3,.2147E-3,0
STARLINK-34542,2025-224J,2026-06-05T03:55:16.189248,15.30205323,.0001031,53.1596,325.2772,64.3534,295.7573,0,U,65890,999,3826,.91411E-3,.26816E-3,0
STARLINK-34791,2025-224K,2026-06-05T04:08:57.185376,15.30198711,.00019357,53.1615,325.3244,64.2281,295.8920,0,U,65891,999,3826,.99397306E-3,.29194E-3,0
STARLINK-34853,2025-224L,2026-06-05T00:35:33.787968,15.34427973,.00008447,53.1597,324.4191,114.9683,245.1407,0,U,65892,999,3819,.12512872E-2,.42176E-3,0
STARLINK-34921,2025-224M,2026-06-05T17:57:10.948896,15.30226848,.000233,53.1597,322.5165,299.5659,60.5109,0,U,65893,999,3835,.91513E-3,.26866E-3,0
STARLINK-34672,2025-224N,2026-06-04T16:41:41.847072,15.30200589,.0001228,53.1593,327.3252,120.7881,239.3241,0,U,65894,999,3819,.10851E-2,.31916E-3,0
STARLINK-34898,2025-224P,2026-06-05T03:49:11.074944,15.34424095,.0001748,53.1600,323.8177,333.8215,26.2699,0,U,65895,999,3828,.80571E-3,.26965E-3,0
STARLINK-34906,2025-224Q,2026-06-04T17:12:25.972128,15.31720170,.0001016,53.1612,326.7521,115.7096,244.4010,0,U,65896,999,3820,.93115E-3,.28659E-3,0
STARLINK-34934,2025-224R,2026-06-04T18:08:14.191584,15.34413533,.00008932,53.1606,325.5717,60.5339,299.5752,0,U,65897,999,3817,.7414531E-3,.24768E-3,0
STARLINK-35272,2025-224T,2026-06-05T04:49:39.481824,15.34404982,.0001391,53.1608,323.3770,70.0093,290.1059,0,U,65899,999,3828,.71613E-3,.239E-3,0
STARLINK-35264,2025-224U,2026-06-05T04:43:35.786208,15.34398734,.0001324,53.1610,323.3503,80.0701,280.0451,0,U,65900,999,3828,.69904E-3,.23314E-3,0
STARLINK-35249,2025-224V,2026-06-05T00:00:02.000160,15.30197084,.00008668,53.1588,325.9347,79.2144,147.0107,0,U,65901,999,583,.82105E-3,.24034E-3,0
STARLINK-35278,2025-224W,2026-06-05T18:04:47.681760,15.30212428,.0001351,53.1593,322.5492,34.3930,325.7158,0,U,65902,999,3835,.81672E-3,.23917E-3,0
