[ {"name": "STARLINK-35423", "line1": "1 65873U 25223V   26156.78201473  .00018170  00000+0  54734-3 0  9997", "line2": "2 65873  53.1583 244.2408 0000892  85.2409 274.8695 15.34414925 37703"}, {"name": "STARLINK-34688", "line1": "1 65875U 25223X   26156.54040958  .00027986  00000+0  83694-3 0  9994", "line2": "2 65875  53.1575 245.5718 0001530  57.0520 303.0629 15.34377050 37669"}, {"name": "STARLINK-34438", "line1": "1 65876U 25223Y   26156.45430736  .00026173  00000+0  78444-3 0  9996", "line2": "2 65876  53.1600 246.4595 0001114  86.6148 273.4983 15.34344631 37644"}, {"name": "STARLINK-35453", "line1": "1 65878U 25223AA  26156.72740500  .00025840  00000+0  77292-3 0  9991", "line2": "2 65878  53.1582 244.6131 0001665  43.9313 316.1822 15.34414608 37696"}, {"name": "STARLINK-35418", "line1": "1 65879U 25223AB  26156.54672073  .00032736  00000+0  97589-3 0  9994", "line2": "2 65879  53.1574 245.6124 0001263 100.2282 259.8863 15.34395825 37661"}, {"name": "STARLINK-35445", "line1": "1 65880U 25223AC  26156.54251276  .00020328  00000+0  61109-3 0  9997", "line2": "2 65880  53.1575 245.5831 0000744  65.4371 294.6709 15.34403096 37668"}, {"name": "STARLINK-35464", "line1": "1 65881U 25223AD  26156.72108397  .00019374  00000+0  58271-3 0  9998", "line2": "2 65881  53.1582 244.5718 0000968  63.9248 296.1854 15.34418945 37694"}, {"name": "STARLINK-35270", "line1": "1 65882U 25224A   26156.81262552  .00043822  00000+0  13002-2 0  9991", "line2": "2 65882  53.1591 320.8070 0001150  68.6639 291.4486 15.34407673 38331"}, {"name": "STARLINK-35367", "line1": "1 65883U 25224B   26155.69268706  .00038529  00000+0  11453-2 0  9990", "line2": "2 65883  53.1603 325.9033 0001742 144.0890 216.0230 15.34408205 38169"}, {"name": "STARLINK-35384", "line1": "1 65884U 25224C   26156.08434766  .00037006  00000+0  12560-2 0  9995", "line2": "2 65884  53.1602 325.4986 0001008  78.2611 281.8503 15.30182848 38201"}, {"name": "STARLINK-35415", "line1": "1 65885U 25224D   26155.75150993  .00026426  00000+0  79015-3 0  9999", "line2": "2 65885  53.1599 325.5601 0001021  93.7644 266.3475 15.34414324 38123"}, {"name": "STARLINK-35413", "line1": "1 65886U 25224E   26155.74730497  .00026913  00000+0  80523-3 0  9999", "line2": "2 65886  53.1610 325.5284 0001049  60.0238 300.0868 15.34382832 38121"}, {"name": "STARLINK-35332", "line1": "1 65887U 25224F   26156.19484282  .00029574  00000+0  88285-3 0  9997", "line2": "2 65887  53.1613 323.3487 0001403  77.6717 282.4443 15.34404342 38275"}, {"name": "STARLINK-35362", "line1": "1 65888U 25224G   26155.69985046  .00031314  00000+0  10643-2 0  9993", "line2": "2 65888  53.1593 327.3640 0001427  28.8618 331.2461 15.30220204 38140"}, {"name": "STARLINK-35193", "line1": "1 65889U 25224H   26156.16654596  .00021470  00000+0  73501-3 0  9995", "line2": "2 65889  53.1586 325.2869 0001197  67.2864 292.8264 15.30196197 38244"}, {"name": "STARLINK-34542", "line1": "1 65890U 25224J   26156.16338182  .00026816  00000+0  91411-3 0  9996", "line2": "2 65890  53.1596 325.2772 0001031  64.3534 295.7573 15.30205323 38268"}, {"name": "STARLINK-34791", "line1": "1 65891U 25224K   26156.17288409  .00029194  00000+0  99397-3 0  9997", "line2": "2 65891  53.1615 325.3244 0001935  64.2281 295.8920 15.30198711 38266"}, {"name": "STARLINK-34853", "line1": "1 65892U 25224L   26156.02469662  .00042176  00000+0  12513-2 0  9993", "line2": "2 65892  53.1597 324.4191 0000844 114.9683 245.1407 15.34427973 38193"}, {"name": "STARLINK-34921", "line1": "1 65893U 25224M   26156.74804340  .00026866  00000+0  91513-3 0  9995", "line2": "2 65893  53.1597 322.5165 0002330 299.5659  60.5109 15.30226848 38359"}, {"name": "STARLINK-34672", "line1": "1 65894U 25224N   26155.69562323  .00031916  00000+0  10851-2 0  9998", "line2": "2 65894  53.1593 327.3252 0001228 120.7881 239.3241 15.30200589 38192"}, {"name": "STARLINK-34898", "line1": "1 65895U 25224P   26156.15915597  .00026965  00000+0  80571-3 0  9991", "line2": "2 65895  53.1600 323.8177 0001747 333.8215  26.2699 15.34424095 38287"}, {"name": "STARLINK-34906", "line1": "1 65896U 25224Q   26155.71696728  .00028659  00000+0  93115-3 0  9995", "line2": "2 65896  53.1612 326.7521 0001016 115.7096 244.4010 15.31720170 38202"}, {"name": "STARLINK-34934", "line1": "1 65897U 25224R   26155.75571981  .00024768  00000+0  74145-3 0  9992", "line2": "2 65897  53.1606 325.5717 0000893  60.5339 299.5752 15.34413533 38174"}, {"name": "STARLINK-35272", "line1": "1 65899U 25224T   26156.20115141  .00023900  00000+0  71613-3 0  9991", "line2": "2 65899  53.1608 323.3770 0001391  70.0093 290.1059 15.34404982 38287"}, {"name": "STARLINK-35264", "line1": "1 65900U 25224U   26156.19694197  .00023314  00000+0  69904-3 0  9994", "line2": "2 65900  53.1610 323.3503 0001324  80.0701 280.0451 15.34398734 38281"}, {"name": "STARLINK-35249", "line1": "1 65901U 25224V   26156.00002315  .00024034  00000+0  82105-3 0  9998", "line2": "2 65901  53.1588 325.9347 0000866  79.2144 147.0107 15.30197084  5837"}, {"name": "STARLINK-35278", "line1": "1 65902U 25224W   26156.75332966  .00023917  00000+0  81672-3 0  9996", "line2": "2 65902  53.1593 322.5492 0001350  34.3930 325.7158 15.30212428 38356"}]